[{"OBJECT_NAME":"FLOCK 4G-17","OBJECT_ID":"2025-009CA","EPOCH":"2026-03-09T22:51:51.984864","MEAN_MOTION":15.27385439,"ECCENTRICITY":0.00036407,"INCLINATION":97.3966,"RA_OF_ASC_NODE":151.0229,"ARG_OF_PERICENTER":339.6132,"MEAN_ANOMALY":20.4962,"EPHEMERIS_TYPE":0,"CLASSIFICATION_TYPE":"U","NORAD_CAT_ID":62681,"ELEMENT_SET_NO":999,"REV_AT_EPOCH":12139,"BSTAR":0.00053710713,"MEAN_MOTION_DOT":0.00014342,"MEAN_MOTION_DDOT":0},{"OBJECT_NAME":"STARLINK-34149","OBJECT_ID":"2025-111T","EPOCH":"2026-03-09T00:49:36.191424","MEAN_MOTION":15.27611973,"ECCENTRICITY":0.00020155,"INCLINATION":43.0106,"RA_OF_ASC_NODE":81.5356,"ARG_OF_PERICENTER":297.0909,"MEAN_ANOMALY":62.9737,"EPHEMERIS_TYPE":0,"CLASSIFICATION_TYPE":"U","NORAD_CAT_ID":64140,"ELEMENT_SET_NO":999,"REV_AT_EPOCH":4536,"BSTAR":0.001792964,"MEAN_MOTION_DOT":0.00049457,"MEAN_MOTION_DDOT":0}]
